[{"OBJECT_NAME":"STARLINK-2122","OBJECT_ID":"2021-005BD","EPOCH":"2026-03-09T03:55:52.124736","MEAN_MOTION":15.30221389,"ECCENTRICITY":0.00013494,"INCLINATION":53.161,"RA_OF_ASC_NODE":15.9494,"ARG_OF_PERICENTER":87.1367,"MEAN_ANOMALY":272.9788,"EPHEMERIS_TYPE":0,"CLASSIFICATION_TYPE":"U","NORAD_CAT_ID":47400,"ELEMENT_SET_NO":999,"REV_AT_EPOCH":28364,"BSTAR":0.00039300475,"MEAN_MOTION_DOT":0.00011306,"MEAN_MOTION_DDOT":0},{"OBJECT_NAME":"CZ-6A DEB","OBJECT_ID":"2024-140UQ","EPOCH":"2026-03-09T14:36:35.114400","MEAN_MOTION":15.29987293,"ECCENTRICITY":0.0094347,"INCLINATION":89.0483,"RA_OF_ASC_NODE":279.5661,"ARG_OF_PERICENTER":66.0307,"MEAN_ANOMALY":295.0787,"EPHEMERIS_TYPE":0,"CLASSIFICATION_TYPE":"U","NORAD_CAT_ID":61327,"ELEMENT_SET_NO":999,"REV_AT_EPOCH":8299,"BSTAR":0.0015211,"MEAN_MOTION_DOT":0.00050856,"MEAN_MOTION_DDOT":0}]
